COMMENT,ORIGINATOR,NORAD_CAT_ID,OBJECT_NAME,OBJECT_TYPE,CLASSIFICATION_TYPE,INTLDES,EPOCH,EPOCH_MICROSECONDS,MEAN_MOTION,ECCENTRICITY,INCLINATION,RA_OF_ASC_NODE,ARG_OF_PERICENTER,MEAN_ANOMALY,EPHEMERIS_TYPE,ELEMENT_SET_NO,REV_AT_EPOCH,BSTAR,MEAN_MOTION_DOT,MEAN_MOTION_DDOT,FILE,TLE_LINE0,TLE_LINE1,TLE_LINE2,OBJECT_ID,OBJECT_NUMBER,SEMIMAJOR_AXIS,PERIOD,APOGEE,PERIGEE,DECAYED
"GENERATED VIA SPACETRACK.ORG API","18 SPCS","55095","SPACEBEE-162","PAYLOAD","U","23001CQ","2023-02-07 03:53:00","420288","15.14606605","0.0017803","97.4978","99.7663","94.3632","265.9635","0","999","538","0.00090949","0.00016819","0","3776603","0 SPACEBEE-162","1 55095U 23001CQ  23038.16181042  .00016819  00000-0  90949-3 0  9998","2 55095  97.4978  99.7663 0017803  94.3632 265.9635 15.14606605  5382","2023-001CQ","55095","6900.310","95.074","534.460","509.891","0"
"GENERATED VIA SPACETRACK.ORG API","18 SPCS","55095","SPACEBEE-162","PAYLOAD","U","23001CQ","2023-02-07 03:53:00","420288","15.14606605","0.0017803","97.4978","99.7663","94.3632","265.9635","0","999","538","0.00090949","0.00016819","0","3777208","0 SPACEBEE-162","1 55095U 23001CQ  23038.16181042  .00016819  00000-0  90949-3 0  9998","2 55095  97.4978  99.7663 0017803  94.3632 265.9635 15.14606605  5382","2023-001CQ","55095","6900.310","95.074","534.460","509.891","0"
"GENERATED VIA SPACETRACK.ORG API","18 SPCS","55095","SPACEBEE-162","PAYLOAD","U","23001CQ","2023-02-07 21:19:28","464960","15.14638833","0.0017856","97.4974","100.4825","92.1287","268.199","0","999","549","0.0010753","0.00019924","0","3777976","0 SPACEBEE-162","1 55095U 23001CQ  23038.88852390  .00019924  00000-0  10753-2 0  9992","2 55095  97.4974 100.4825 0017856  92.1287 268.1990 15.14638833  5497","2023-001CQ","55095","6900.212","95.072","534.398","509.756","0"
"GENERATED VIA SPACETRACK.ORG API","18 SPCS","55095","SPACEBEE-162","PAYLOAD","U","23001CQ","2023-02-08 03:40:00","156576","15.14650223","0.001782","97.4973","100.7428","91.2606","269.0668","0","999","553","0.0010666","0.00019768","0","3778591","0 SPACEBEE-162","1 55095U 23001CQ  23039.15277959  .00019768  00000-0  10666-2 0  9994","2 55095  97.4973 100.7428 0017820  91.2606 269.0668 15.14650223  5538","2023-001CQ","55095","6900.178","95.071","534.339","509.747","0"
"GENERATED VIA SPACETRACK.ORG API","18 SPCS","55095","SPACEBEE-162","PAYLOAD","U","23001CQ","2023-02-08 03:40:00","156576","15.14650223","0.001782","97.4973","100.7428","91.2606","269.0668","0","999","553","0.0010666","0.00019768","0","3780324","0 SPACEBEE-162","1 55095U 23001CQ  23039.15277959  .00019768  00000-0  10666-2 0  9994","2 55095  97.4973 100.7428 0017820  91.2606 269.0668 15.14650223  5538","2023-001CQ","55095","6900.178","95.071","534.339","509.747","0"
"GENERATED VIA SPACETRACK.ORG API","18 SPCS","55095","SPACEBEE-162","PAYLOAD","U","23001CQ","2023-02-08 16:21:02","935008","15.14677352","0.0017782","97.4968","101.2637","89.5896","270.7374","0","999","561","0.0012128","0.00022512","0","3780893","0 SPACEBEE-162","1 55095U 23001CQ  23039.68128397  .00022512  00000-0  12128-2 0  9999","2 55095  97.4968 101.2637 0017782  89.5896 270.7374 15.14677352  5612","2023-001CQ","55095","6900.095","95.070","534.230","509.691","0"
"GENERATED VIA SPACETRACK.ORG API","18 SPCS","55095","SPACEBEE-162","PAYLOAD","U","23001CQ","2023-02-09 11:22:35","740992","15.14714076","0.0017653","97.4964","102.045","87.1959","273.1293","0","999","573","0.0012153","0.00022581","0","3782313","0 SPACEBEE-162","1 55095U 23001CQ  23040.47402478  .00022581  00000-0  12153-2 0  9997","2 55095  97.4964 102.0450 0017653  87.1959 273.1293 15.14714076  5736","2023-001CQ","55095","6899.984","95.067","534.029","509.668","0"
"GENERATED VIA SPACETRACK.ORG API","18 SPCS","55095","SPACEBEE-162","PAYLOAD","U","23001CQ","2023-02-09 11:22:35","740992","15.14714076","0.0017653","97.4964","102.045","87.1959","273.1293","0","999","573","0.0012153","0.00022581","0","3783016","0 SPACEBEE-162","1 55095U 23001CQ  23040.47402478  .00022581  00000-0  12153-2 0  9997","2 55095  97.4964 102.0450 0017653  87.1959 273.1293 15.14714076  5736","2023-001CQ","55095","6899.984","95.067","534.029","509.668","0"
"GENERATED VIA SPACETRACK.ORG API","18 SPCS","55095","SPACEBEE-162","PAYLOAD","U","23001CQ","2023-02-10 09:34:21","984384","15.14759602","0.0017946","97.4949","102.9526","83.7542","276.5827","0","999","587","0.0012789","0.00023803","0","3783804","0 SPACEBEE-162","1 55095U 23001CQ  23041.39886556  .00023803  00000-0  12789-2 0  9995","2 55095  97.4949 102.9526 0017946  83.7542 276.5827 15.14759602  5876","2023-001CQ","55095","6899.845","95.065","534.093","509.328","0"
"GENERATED VIA SPACETRACK.ORG API","18 SPCS","55095","SPACEBEE-162","PAYLOAD","U","23001CQ","2023-02-10 15:54:51","713856","15.14774942","0.001752","97.496","103.2166","83.0749","277.2475","0","999","591","0.0013699","0.00025514","0","3785071","0 SPACEBEE-162","1 55095U 23001CQ  23041.66309854  .00025514  00000-0  13699-2 0  9998","2 55095  97.4960 103.2166 0017520  83.0749 277.2475 15.14774942  5919","2023-001CQ","55095","6899.799","95.064","533.752","509.575","0"
"GENERATED VIA SPACETRACK.ORG API","18 SPCS","55095","SPACEBEE-162","PAYLOAD","U","23001CQ","2023-02-11 03:00:43","469568","15.14801031","0.0017489","97.4958","103.6723","81.1903","279.1308","0","999","598","0.0015453","0.00028823","0","3786144","0 SPACEBEE-162","1 55095U 23001CQ  23042.12550312  .00028823  00000-0  15453-2 0  9993","2 55095  97.4958 103.6723 0017489  81.1903 279.1308 15.14801031  5987","2023-001CQ","55095","6899.720","95.062","533.652","509.518","0"
"GENERATED VIA SPACETRACK.ORG API","18 SPCS","55095","SPACEBEE-162","PAYLOAD","U","23001CQ","2023-02-11 22:02:10","558464","15.14842497","0.0017482","97.4961","104.454","78.9973","281.3225","0","999","610","0.0014069","0.00026257","0","3786558","0 SPACEBEE-162","1 55095U 23001CQ  23042.91817776  .00026257  00000-0  14069-2 0  9991","2 55095  97.4961 104.4540 0017482  78.9973 281.3225 15.14842497  6100","2023-001CQ","55095","6899.594","95.059","533.521","509.397","0"
"GENERATED VIA SPACETRACK.ORG API","18 SPCS","55095","SPACEBEE-162","PAYLOAD","U","23001CQ","2023-02-12 10:43:07","557600","15.14870349","0.0017462","97.4961","104.9747","77.3033","283.015","0","999","618","0.0013365","0.00024955","0","3787692","0 SPACEBEE-162","1 55095U 23001CQ  23043.44661525  .00024955  00000-0  13365-2 0  9990","2 55095  97.4961 104.9747 0017462  77.3033 283.0150 15.14870349  6183","2023-001CQ","55095","6899.509","95.058","533.422","509.326","0"
"GENERATED VIA SPACETRACK.ORG API","18 SPCS","55095","SPACEBEE-162","PAYLOAD","U","23001CQ","2023-02-13 02:34:17","650272","15.14906146","0.0017517","97.4961","105.6262","75.2088","285.1083","0","999","628","0.0014312","0.00026762","0","3788763","0 SPACEBEE-162","1 55095U 23001CQ  23044.10714873  .00026762  00000-0  14312-2 0  9990","2 55095  97.4961 105.6262 0017517  75.2088 285.1083 15.14906146  6285","2023-001CQ","55095","6899.401","95.055","533.351","509.180","0"
"GENERATED VIA SPACETRACK.ORG API","18 SPCS","55095","SPACEBEE-162","PAYLOAD","U","23001CQ","2023-02-13 10:29:52","212768","15.14921284","0.0017502","97.4961","105.9515","74.308","286.0081","0","999","633","0.0013147","0.00024581","0","3789366","0 SPACEBEE-162","1 55095U 23001CQ  23044.43740987  .00024581  00000-0  13147-2 0  9993","2 55095  97.4961 105.9515 0017502  74.3080 286.0081 15.14921284  6339","2023-001CQ","55095","6899.355","95.054","533.295","509.144","0"
"GENERATED VIA SPACETRACK.ORG API","18 SPCS","55095","SPACEBEE-162","PAYLOAD","U","23001CQ","2023-02-14 10:16:34","279392","15.14966849","0.001754","97.4965","106.9288","71.0823","289.2309","0","999","648","0.0013184","0.00024683","0","3791301","0 SPACEBEE-162","1 55095U 23001CQ  23045.42817453  .00024683  00000-0  13184-2 0  9990","2 55095  97.4965 106.9288 0017540  71.0823 289.2309 15.14966849  6482","2023-001CQ","55095","6899.216","95.052","533.182","508.980","0"
"GENERATED VIA SPACETRACK.ORG API","18 SPCS","55095","SPACEBEE-162","PAYLOAD","U","23001CQ","2023-02-14 10:16:34","279392","15.14966849","0.001754","97.4965","106.9288","71.0823","289.2309","0","999","648","0.0013184","0.00024683","0","3791349","0 SPACEBEE-162","1 55095U 23001CQ  23045.42817453  .00024683  00000-0  13184-2 0  9990","2 55095  97.4965 106.9288 0017540  71.0823 289.2309 15.14966849  6482","2023-001CQ","55095","6899.216","95.052","533.182","508.980","0"
"GENERATED VIA SPACETRACK.ORG API","18 SPCS","55095","SPACEBEE-162","PAYLOAD","U","23001CQ","2023-02-15 10:03:13","799808","15.15010786","0.0017489","97.4964","107.9058","68.0021","292.3067","0","999","663","0.0012767","0.00023927","0","3793706","0 SPACEBEE-162","1 55095U 23001CQ  23046.41890972  .00023927  00000-0  12767-2 0  9993","2 55095  97.4964 107.9058 0017489  68.0021 292.3067 15.15010786  6639","2023-001CQ","55095","6899.083","95.049","533.014","508.882","0"
"GENERATED VIA SPACETRACK.ORG API","18 SPCS","55095","SPACEBEE-162","PAYLOAD","U","23001CQ","2023-02-15 14:48:33","353280","15.15025962","0.0017465","97.4964","108.1012","67.4321","292.8757","0","999","666","0.00157","0.00029474","0","3795153","0 SPACEBEE-162","1 55095U 23001CQ  23046.61705270  .00029474  00000-0  15700-2 0  9994","2 55095  97.4964 108.1012 0017465  67.4321 292.8757 15.15025962  6668","2023-001CQ","55095","6899.037","95.048","532.951","508.853","0"
"GENERATED VIA SPACETRACK.ORG API","18 SPCS","55095","SPACEBEE-162","PAYLOAD","U","23001CQ","2023-02-15 22:44:05","666784","15.15042637","0.0017446","97.4963","108.4271","66.2581","294.0479","0","999","671","0.0015662","0.00029416","0","3794947","0 SPACEBEE-162","1 55095U 23001CQ  23046.94728781  .00029416  00000-0  15662-2 0  9995","2 55095  97.4963 108.4271 0017446  66.2581 294.0479 15.15042637  6710","2023-001CQ","55095","6898.986","95.047","532.887","508.815","0"
